SL-4 R/B                
1 39679U 14021B   26032.31988027  .00010136  00000+0  23516-3 0  9993
2 39679  51.6068 154.5423 0099044 330.4155  29.1247 15.38035163650677
ALOS-2                  
1 39766U 14029A   26032.60295252  .00000118  00000+0  22740-4 0  9999
2 39766  97.9220 131.7201 0001356 119.3614 240.7733 14.79470863631530
YAOGAN-29               
1 41038U 15069A   26032.56141382  .00001007  00000+0  13074-3 0  9995
2 41038  98.0181  60.8887 0002863  97.1636 262.9903 14.82953485550520
ASTRO-H (HITOMI)        
1 41337U 16012A   26031.87763397  .00002911  00000+0  17025-3 0  9990
2 41337  30.9981 234.0565 0009931 322.6255  37.3692 15.09729014546667
HXMT (HUIYAN)           
1 42758U 17034A   26032.56926510  .00004241  00000+0  22014-3 0  9990
2 42758  43.0121 217.4139 0031852   3.9062 356.2029 15.16975141477055
CZ-2C R/B               
1 43521U 18054D   26031.74155439  .00239662  21883-4  71720-3 0  9997
2 43521  35.1284 198.2834 0013494 304.0164  55.9293 15.91118194422971
SAOCOM 1A               
1 43641U 18076A   26032.50730497  .00000338  00000+0  48969-4 0  9991
2 43641  97.8861 221.1935 0001377  86.1794 273.9577 14.82148339396006
H-2A R/B                
1 43682U 18084L   26032.48879048  .00017253  00000+0  43358-3 0  9998
2 43682  98.8756 242.1834 0026147 147.4332 212.8529 15.39719554400200
SAOCOM 1B               
1 46265U 20059A   26032.53857622  .00000696  00000+0  94017-4 0  9995
2 46265  97.8856 220.3229 0001321  86.2817 273.8547 14.82154767293394
CSS (TIANHE)            
1 48274U 21035A   26031.38642198  .00028253  00000+0  32371-3 0  9997
2 48274  41.4674  74.8264 0008909  46.9753 313.1831 15.61427822271787
COSMOS 2550             
1 48865U 21056A   26026.13240542 -.00000181  00000+0  32270-6 0  9992
2 48865  67.1441 169.6578 0008309 269.8947  90.1255 15.33840202256938
CZ-2C R/B               
1 52794U 22058K   26032.47823510  .00023354  00000+0  37719-3 0  9993
2 52794  50.1891 144.1992 0042487  47.4821 312.9725 15.51693521204502
