CCSDS_OMM_VERS = 2.0
CREATION_DATE  = 
ORIGINATOR     = 

OBJECT_NAME    = SL-4 R/B
OBJECT_ID      = 2014-021B
CENTER_NAME    = EARTH
REF_FRAME      = TEME
TIME_SYSTEM    = UTC
MEAN_ELEMENT_THEORY = SGP/SGP4

EPOCH          = 2026-02-01T07:40:37.655328
MEAN_MOTION    = 15.38035163
ECCENTRICITY   = .0099044
INCLINATION    = 51.6068
RA_OF_ASC_NODE = 154.5423
ARG_OF_PERICENTER = 330.4155
MEAN_ANOMALY   = 29.1247

EPHEMERIS_TYPE = 0
CLASSIFICATION_TYPE = U
NORAD_CAT_ID   = 39679
ELEMENT_SET_NO = 999
REV_AT_EPOCH   = 65067
BSTAR          = .23516E-3
MEAN_MOTION_DOT = .10136E-3
MEAN_MOTION_DDOT = 0

CCSDS_OMM_VERS = 2.0
CREATION_DATE  = 
ORIGINATOR     = 

OBJECT_NAME    = ALOS-2
OBJECT_ID      = 2014-029A
CENTER_NAME    = EARTH
REF_FRAME      = TEME
TIME_SYSTEM    = UTC
MEAN_ELEMENT_THEORY = SGP/SGP4

EPOCH          = 2026-02-01T14:28:15.097728
MEAN_MOTION    = 14.79470863
ECCENTRICITY   = .0001356
INCLINATION    = 97.9220
RA_OF_ASC_NODE = 131.7201
ARG_OF_PERICENTER = 119.3614
MEAN_ANOMALY   = 240.7733

EPHEMERIS_TYPE = 0
CLASSIFICATION_TYPE = U
NORAD_CAT_ID   = 39766
ELEMENT_SET_NO = 999
REV_AT_EPOCH   = 63153
BSTAR          = .2274E-4
MEAN_MOTION_DOT = .118E-5
MEAN_MOTION_DDOT = 0

CCSDS_OMM_VERS = 2.0
CREATION_DATE  = 
ORIGINATOR     = 

OBJECT_NAME    = YAOGAN-29
OBJECT_ID      = 2015-069A
CENTER_NAME    = EARTH
REF_FRAME      = TEME
TIME_SYSTEM    = UTC
MEAN_ELEMENT_THEORY = SGP/SGP4

EPOCH          = 2026-02-01T13:28:26.154048
MEAN_MOTION    = 14.82953485
ECCENTRICITY   = .0002863
INCLINATION    = 98.0181
RA_OF_ASC_NODE = 60.8887
ARG_OF_PERICENTER = 97.1636
MEAN_ANOMALY   = 262.9903

EPHEMERIS_TYPE = 0
CLASSIFICATION_TYPE = U
NORAD_CAT_ID   = 41038
ELEMENT_SET_NO = 999
REV_AT_EPOCH   = 55052
BSTAR          = .13074E-3
MEAN_MOTION_DOT = .1007E-4
MEAN_MOTION_DDOT = 0

CCSDS_OMM_VERS = 2.0
CREATION_DATE  = 
ORIGINATOR     = 

OBJECT_NAME    = ASTRO-H (HITOMI)
OBJECT_ID      = 2016-012A
CENTER_NAME    = EARTH
REF_FRAME      = TEME
TIME_SYSTEM    = UTC
MEAN_ELEMENT_THEORY = SGP/SGP4

EPOCH          = 2026-01-31T21:03:47.575008
MEAN_MOTION    = 15.09729014
ECCENTRICITY   = .00099315
INCLINATION    = 30.9981
RA_OF_ASC_NODE = 234.0565
ARG_OF_PERICENTER = 322.6255
MEAN_ANOMALY   = 37.3692

EPHEMERIS_TYPE = 0
CLASSIFICATION_TYPE = U
NORAD_CAT_ID   = 41337
ELEMENT_SET_NO = 999
REV_AT_EPOCH   = 54666
BSTAR          = .17025206E-3
MEAN_MOTION_DOT = .2911E-4
MEAN_MOTION_DDOT = 0

CCSDS_OMM_VERS = 2.0
CREATION_DATE  = 
ORIGINATOR     = 

OBJECT_NAME    = HXMT (HUIYAN)
OBJECT_ID      = 2017-034A
CENTER_NAME    = EARTH
REF_FRAME      = TEME
TIME_SYSTEM    = UTC
MEAN_ELEMENT_THEORY = SGP/SGP4

EPOCH          = 2026-02-01T13:39:44.504640
MEAN_MOTION    = 15.16975141
ECCENTRICITY   = .0031852
INCLINATION    = 43.0121
RA_OF_ASC_NODE = 217.4139
ARG_OF_PERICENTER = 3.9062
MEAN_ANOMALY   = 356.2029

EPHEMERIS_TYPE = 0
CLASSIFICATION_TYPE = U
NORAD_CAT_ID   = 42758
ELEMENT_SET_NO = 999
REV_AT_EPOCH   = 47705
BSTAR          = .22014E-3
MEAN_MOTION_DOT = .4241E-4
MEAN_MOTION_DDOT = 0

CCSDS_OMM_VERS = 2.0
CREATION_DATE  = 
ORIGINATOR     = 

OBJECT_NAME    = CZ-2C R/B
OBJECT_ID      = 2018-054D
CENTER_NAME    = EARTH
REF_FRAME      = TEME
TIME_SYSTEM    = UTC
MEAN_ELEMENT_THEORY = SGP/SGP4

EPOCH          = 2026-01-31T17:47:50.299296
MEAN_MOTION    = 15.91118194
ECCENTRICITY   = .00134942
INCLINATION    = 35.1284
RA_OF_ASC_NODE = 198.2834
ARG_OF_PERICENTER = 304.0164
MEAN_ANOMALY   = 55.9293

EPHEMERIS_TYPE = 0
CLASSIFICATION_TYPE = U
NORAD_CAT_ID   = 43521
ELEMENT_SET_NO = 999
REV_AT_EPOCH   = 42297
BSTAR          = .7172045E-3
MEAN_MOTION_DOT = .239662E-2
MEAN_MOTION_DDOT = .21883057E-4

CCSDS_OMM_VERS = 2.0
CREATION_DATE  = 
ORIGINATOR     = 

OBJECT_NAME    = SAOCOM 1A
OBJECT_ID      = 2018-076A
CENTER_NAME    = EARTH
REF_FRAME      = TEME
TIME_SYSTEM    = UTC
MEAN_ELEMENT_THEORY = SGP/SGP4

EPOCH          = 2026-02-01T12:10:31.149408
MEAN_MOTION    = 14.82148339
ECCENTRICITY   = .0001377
INCLINATION    = 97.8861
RA_OF_ASC_NODE = 221.1935
ARG_OF_PERICENTER = 86.1794
MEAN_ANOMALY   = 273.9577

EPHEMERIS_TYPE = 0
CLASSIFICATION_TYPE = U
NORAD_CAT_ID   = 43641
ELEMENT_SET_NO = 999
REV_AT_EPOCH   = 39600
BSTAR          = .48969E-4
MEAN_MOTION_DOT = .338E-5
MEAN_MOTION_DDOT = 0

CCSDS_OMM_VERS = 2.0
CREATION_DATE  = 
ORIGINATOR     = 

OBJECT_NAME    = H-2A R/B
OBJECT_ID      = 2018-084L
CENTER_NAME    = EARTH
REF_FRAME      = TEME
TIME_SYSTEM    = UTC
MEAN_ELEMENT_THEORY = SGP/SGP4

EPOCH          = 2026-02-01T11:43:51.497472
MEAN_MOTION    = 15.39719554
ECCENTRICITY   = .0026147
INCLINATION    = 98.8756
RA_OF_ASC_NODE = 242.1834
ARG_OF_PERICENTER = 147.4332
MEAN_ANOMALY   = 212.8529

EPHEMERIS_TYPE = 0
CLASSIFICATION_TYPE = U
NORAD_CAT_ID   = 43682
ELEMENT_SET_NO = 999
REV_AT_EPOCH   = 40020
BSTAR          = .43358E-3
MEAN_MOTION_DOT = .17253E-3
MEAN_MOTION_DDOT = 0

CCSDS_OMM_VERS = 2.0
CREATION_DATE  = 
ORIGINATOR     = 

OBJECT_NAME    = SAOCOM 1B
OBJECT_ID      = 2020-059A
CENTER_NAME    = EARTH
REF_FRAME      = TEME
TIME_SYSTEM    = UTC
MEAN_ELEMENT_THEORY = SGP/SGP4

EPOCH          = 2026-02-01T12:55:32.985408
MEAN_MOTION    = 14.82154767
ECCENTRICITY   = .0001321
INCLINATION    = 97.8856
RA_OF_ASC_NODE = 220.3229
ARG_OF_PERICENTER = 86.2817
MEAN_ANOMALY   = 273.8547

EPHEMERIS_TYPE = 0
CLASSIFICATION_TYPE = U
NORAD_CAT_ID   = 46265
ELEMENT_SET_NO = 999
REV_AT_EPOCH   = 29339
BSTAR          = .94017E-4
MEAN_MOTION_DOT = .696E-5
MEAN_MOTION_DDOT = 0

CCSDS_OMM_VERS = 2.0
CREATION_DATE  = 
ORIGINATOR     = 

OBJECT_NAME    = CSS (TIANHE)
OBJECT_ID      = 2021-035A
CENTER_NAME    = EARTH
REF_FRAME      = TEME
TIME_SYSTEM    = UTC
MEAN_ELEMENT_THEORY = SGP/SGP4

EPOCH          = 2026-01-31T09:16:26.859072
MEAN_MOTION    = 15.61427822
ECCENTRICITY   = .00089098
INCLINATION    = 41.4674
RA_OF_ASC_NODE = 74.8264
ARG_OF_PERICENTER = 46.9753
MEAN_ANOMALY   = 313.1831

EPHEMERIS_TYPE = 0
CLASSIFICATION_TYPE = U
NORAD_CAT_ID   = 48274
ELEMENT_SET_NO = 999
REV_AT_EPOCH   = 27178
BSTAR          = .32370793E-3
MEAN_MOTION_DOT = .28253E-3
MEAN_MOTION_DDOT = 0

CCSDS_OMM_VERS = 2.0
CREATION_DATE  = 
ORIGINATOR     = 

OBJECT_NAME    = COSMOS 2550
OBJECT_ID      = 2021-056A
CENTER_NAME    = EARTH
REF_FRAME      = TEME
TIME_SYSTEM    = UTC
MEAN_ELEMENT_THEORY = SGP/SGP4

EPOCH          = 2026-01-26T03:10:39.828288
MEAN_MOTION    = 15.33840202
ECCENTRICITY   = .00083094
INCLINATION    = 67.1441
RA_OF_ASC_NODE = 169.6578
ARG_OF_PERICENTER = 269.8947
MEAN_ANOMALY   = 90.1255

EPHEMERIS_TYPE = 0
CLASSIFICATION_TYPE = U
NORAD_CAT_ID   = 48865
ELEMENT_SET_NO = 999
REV_AT_EPOCH   = 25693
BSTAR          = .322698E-6
MEAN_MOTION_DOT = -.181E-5
MEAN_MOTION_DDOT = 0

CCSDS_OMM_VERS = 2.0
CREATION_DATE  = 
ORIGINATOR     = 

OBJECT_NAME    = CZ-2C R/B
OBJECT_ID      = 2022-058K
CENTER_NAME    = EARTH
REF_FRAME      = TEME
TIME_SYSTEM    = UTC
MEAN_ELEMENT_THEORY = SGP/SGP4

EPOCH          = 2026-02-01T11:28:39.512640
MEAN_MOTION    = 15.51693521
ECCENTRICITY   = .0042487
INCLINATION    = 50.1891
RA_OF_ASC_NODE = 144.1992
ARG_OF_PERICENTER = 47.4821
MEAN_ANOMALY   = 312.9725

EPHEMERIS_TYPE = 0
CLASSIFICATION_TYPE = U
NORAD_CAT_ID   = 52794
ELEMENT_SET_NO = 999
REV_AT_EPOCH   = 20450
BSTAR          = .37719E-3
MEAN_MOTION_DOT = .23354E-3
MEAN_MOTION_DDOT = 0

